[{"OBJECT_NAME":"RISAT-2BR1","OBJECT_ID":"2019-089F","EPOCH":"2026-03-09T22:23:56.080608","MEAN_MOTION":15.01632497,"ECCENTRICITY":0.00130957,"INCLINATION":36.9618,"RA_OF_ASC_NODE":340.419,"ARG_OF_PERICENTER":88.0635,"MEAN_ANOMALY":272.1607,"EPHEMERIS_TYPE":0,"CLASSIFICATION_TYPE":"U","NORAD_CAT_ID":44857,"ELEMENT_SET_NO":999,"REV_AT_EPOCH":34227,"BSTAR":0.00042406412,"MEAN_MOTION_DOT":5.543e-5,"MEAN_MOTION_DDOT":0},{"OBJECT_NAME":"CZ-4C DEB","OBJECT_ID":"2010-038F","EPOCH":"2026-03-09T16:58:31.008576","MEAN_MOTION":14.75157058,"ECCENTRICITY":0.01220425,"INCLINATION":97.8388,"RA_OF_ASC_NODE":141.0256,"ARG_OF_PERICENTER":182.6031,"MEAN_ANOMALY":177.4559,"EPHEMERIS_TYPE":0,"CLASSIFICATION_TYPE":"U","NORAD_CAT_ID":37570,"ELEMENT_SET_NO":999,"REV_AT_EPOCH":82359,"BSTAR":0.0011084777,"MEAN_MOTION_DOT":8.398e-5,"MEAN_MOTION_DDOT":0}]
